NORAD_CAT_ID,OBJECT_NAME,OBJECT_TYPE,EPOCH,MEAN_MOTION,ECCENTRICITY,INCLINATION,RA_OF_ASC_NODE,ARG_OF_PERICENTER,MEAN_ANOMALY,BSTAR,MEAN_MOTION_DOT,MEAN_MOTION_DDOT,TLE_LINE0,TLE_LINE1,TLE_LINE2,SEMIMAJOR_AXIS,PERIOD,APOGEE,PERIGEE,DECAYED
54083.0,STARLINK-5178,PAYLOAD,2023-09-18 20:10:53,15.08842507,0.0001412,53.2186,67.232,81.1025,279.0127,7.3682e-05,8.85e-06,0.0,0 STARLINK-5178,1 54083U 22136AJ  23261.84089711  .00000885  00000-0  73682-4 0  9997,2 54083  53.2186  67.2320 0001412  81.1025 279.0127 15.08842507 50689,6917.873,95.437,540.715,538.761,0.0
54083.0,STARLINK-5178,PAYLOAD,2023-09-19 18:26:16,15.08851652,0.0001324,53.2183,63.0677,83.6911,276.4232,0.00012183,1.652e-05,0.0,0 STARLINK-5178,1 54083U 22136AJ  23262.76824908  .00001652  00000-0  12183-3 0  9995,2 54083  53.2183  63.0677 0001324  83.6911 276.4232 15.08851652 51307,6917.845,95.437,540.626,538.794,0.0
54083.0,STARLINK-5178,PAYLOAD,2023-09-20 10:20:09,15.08830958,0.0001593,53.2183,60.0951,81.0658,279.0515,-2.1367e-06,-3.22e-06,0.0,0 STARLINK-5178,1 54083U 22136AJ  23263.43066460 -.00000322  00000-0 -21367-5 0  9992,2 54083  53.2183  60.0951 0001593  81.0658 279.0515 15.08830958 51407,6917.908,95.438,540.875,538.671,0.0
54083.0,STARLINK-5178,PAYLOAD,2023-09-20 18:17:05,15.08829935,0.00013,53.2177,58.6061,86.7439,273.3701,-7.681e-05,-1.51e-05,0.0,0 STARLINK-5178,1 54083U 22136AJ  23263.76186668 -.00001510  00000-0 -76810-4 0  9993,2 54083  53.2177  58.6061 0001300  86.7439 273.3701 15.08829935 50978,6917.911,95.438,540.675,538.877,0.0
54083.0,STARLINK-5178,PAYLOAD,2023-09-21 10:10:56,15.08840381,0.0001306,53.2179,55.6329,71.9086,288.2048,5.5151e-05,5.9e-06,0.0,0 STARLINK-5178,1 54083U 22136AJ  23264.42426580  .00000590  00000-0  55151-4 0  9997,2 54083  53.2179  55.6329 0001306  71.9086 288.2048 15.08840381 51073,6917.879,95.438,540.648,538.841,0.0
54083.0,STARLINK-5178,PAYLOAD,2023-09-21 16:32:28,15.08846647,0.0001049,53.2177,54.4445,79.0612,281.0499,0.00018436,2.648e-05,0.0,0 STARLINK-5178,1 54083U 22136AJ  23264.68922321  .00002648  00000-0  18436-3 0  9999,2 54083  53.2177  54.4445 0001049  79.0612 281.0499 15.08846647 51594,6917.86,95.437,540.451,538.999,0.0
54083.0,STARLINK-5178,PAYLOAD,2023-09-22 10:01:43,15.08842573,0.0001506,53.2177,51.1741,71.8139,288.3017,0.00026938,4.002e-05,0.0,0 STARLINK-5178,1 54083U 22136AJ  23265.41786515  .00004002  00000-0  26938-3 0  9996,2 54083  53.2177  51.1741 0001506  71.8139 288.3017 15.08842573 51702,6917.873,95.437,540.779,538.696,0.0
54083.0,STARLINK-5178,PAYLOAD,2023-09-22 13:12:29,15.08840841,0.0001387,53.2178,50.5794,73.3687,286.7457,0.00020719,3.011e-05,0.0,0 STARLINK-5178,1 54083U 22136AJ  23265.55034574  .00003011  00000-0  20719-3 0  9992,2 54083  53.2178  50.5794 0001387  73.3687 286.7457 15.08840841 51241,6917.878,95.438,540.702,538.783,0.0
54083.0,STARLINK-5178,PAYLOAD,2023-09-22 16:23:15,15.08846219,0.000133,53.2183,49.9833,74.7204,285.3935,0.00022586,3.309e-05,0.0,0 STARLINK-5178,1 54083U 22136AJ  23265.68282253  .00003309  00000-0  22586-3 0  9999,2 54083  53.2183  49.9833 0001330  74.7204 285.3935 15.08846219 51264,6917.861,95.437,540.646,538.806,0.0
54083.0,STARLINK-5178,PAYLOAD,2023-09-23 13:03:16,15.0884341,0.0001407,53.2191,46.1195,77.901,282.214,-2.9864e-05,-7.63e-06,0.0,0 STARLINK-5178,1 54083U 22136AJ  23266.54394228 -.00000763  00000-0 -29864-4 0  9991,2 54083  53.2191  46.1195 0001407  77.9010 282.2140 15.08843410 51879,6917.87,95.437,540.708,538.762,0.0
54083.0,STARLINK-5178,PAYLOAD,2023-09-24 08:07:54,15.08834214,0.0001135,53.2201,42.5507,81.253,278.8591,8.7486e-06,-1.49e-06,0.0,0 STARLINK-5178,1 54083U 22136AJ  23267.33882896 -.00000149  00000-0  87486-5 0  9994,2 54083  53.2201  42.5507 0001135  81.2530 278.8591 15.08834214 51997,6917.898,95.438,540.548,538.978,0.0
54083.0,STARLINK-5178,PAYLOAD,2023-09-24 12:54:03,15.08837953,0.0001342,53.2201,41.6588,87.6941,272.4205,3.3936e-05,2.52e-06,0.0,0 STARLINK-5178,1 54083U 22136AJ  23267.53754622  .00000252  00000-0  33936-4 0  9995,2 54083  53.2201  41.6588 0001342  87.6941 272.4205 15.08837953 51548,6917.887,95.438,540.68,538.823,0.0
54083.0,STARLINK-5178,PAYLOAD,2023-09-24 14:29:27,15.08839269,0.0001498,53.2201,41.3612,84.542,275.5743,4.2933e-05,3.95e-06,0.0,0 STARLINK-5178,1 54083U 22136AJ  23267.60378547  .00000395  00000-0  42933-4 0  9996,2 54083  53.2201  41.3612 0001498  84.5420 275.5743 15.08839269 51557,6917.883,95.438,540.784,538.711,0.0
54083.0,STARLINK-5178,PAYLOAD,2023-09-25 12:44:50,15.08845425,0.0001508,53.2187,37.1978,101.7255,258.3906,0.00011985,1.62e-05,0.0,0 STARLINK-5178,1 54083U 22136AJ  23268.53113961  .00001620  00000-0  11985-3 0  9990,2 54083  53.2187  37.1978 0001508 101.7255 258.3906 15.08845425 51694,6917.864,95.437,540.772,538.686,0.0
54083.0,STARLINK-5178,PAYLOAD,2023-09-25 15:55:36,15.0884999,0.0001397,53.2185,36.6053,101.0981,259.0168,0.00020892,3.039e-05,0.0,0 STARLINK-5178,1 54083U 22136AJ  23268.66361707  .00003039  00000-0  20892-3 0  9990,2 54083  53.2185  36.6053 0001397 101.0981 259.0168 15.08849990 52190,6917.85,95.437,540.681,538.748,0.0
54083.0,STARLINK-5178,PAYLOAD,2023-09-26 14:11:01,15.08836529,0.0001552,53.2191,32.4404,105.3601,254.7562,5.1404e-05,5.3e-06,0.0,0 STARLINK-5178,1 54083U 22136AJ  23269.59098623  .00000530  00000-0  51404-4 0  9994,2 54083  53.2191  32.4404 0001552 105.3601 254.7562 15.08836529 51856,6917.891,95.438,540.83,538.682,0.0
54083.0,STARLINK-5178,PAYLOAD,2023-09-26 17:21:47,15.08836938,0.0001546,53.2189,31.8456,100.4621,259.6546,6.351e-05,7.23e-06,0.0,0 STARLINK-5178,1 54083U 22136AJ  23269.72346693  .00000723  00000-0  63510-4 0  9997,2 54083  53.2189  31.8456 0001546 100.4621 259.6546 15.08836938 52350,6917.89,95.438,540.824,538.685,0.0
54083.0,STARLINK-5178,PAYLOAD,2023-09-27 12:26:25,15.0883998,0.0001489,53.2186,28.2772,100.4997,259.6163,8.5795e-05,1.078e-05,0.0,0 STARLINK-5178,1 54083U 22136AJ  23270.51834681  .00001078  00000-0  85795-4 0  9998,2 54083  53.2186  28.2772 0001489 100.4997 259.6163 15.08839980 51994,6917.88,95.438,540.776,538.715,0.0
54083.0,STARLINK-5178,PAYLOAD,2023-09-28 12:17:12,15.08840357,0.0001519,53.2187,23.8152,72.354,287.7618,0.00020405,2.961e-05,0.0,0 STARLINK-5178,1 54083U 22136AJ  23271.51195077  .00002961  00000-0  20405-3 0  9996,2 54083  53.2187  23.8152 0001519  72.3540 287.7618 15.08840357 52621,6917.879,95.438,540.795,538.693,0.0
54083.0,STARLINK-5178,PAYLOAD,2023-09-28 13:52:35,15.088428,0.0001487,53.2182,23.5181,74.9647,285.151,0.00023957,3.527e-05,0.0,0 STARLINK-5178,1 54083U 22136AJ  23271.57818969  .00003527  00000-0  23957-3 0  9998,2 54083  53.2182  23.5181 0001487  74.9647 285.1510 15.08842800 52151,6917.872,95.437,540.766,538.708,0.0
54083.0,STARLINK-5178,PAYLOAD,2023-09-29 12:07:59,15.08842598,0.0001623,53.2172,19.3586,59.9444,300.1709,0.00012509,1.703e-05,0.0,0 STARLINK-5178,1 54083U 22136AJ  23272.50555174  .00001703  00000-0  12509-3 0  9993,2 54083  53.2172  19.3586 0001623  59.9444 300.1709 15.08842598 52299,6917.872,95.437,540.86,538.615,0.0
54083.0,STARLINK-5178,PAYLOAD,2023-09-30 10:23:23,15.08836001,0.0001426,53.2188,15.1936,105.7096,254.4054,0.00049626,7.618e-05,0.0,0 STARLINK-5178,1 54083U 22136AJ  23273.43291092  .00007618  00000-0  49626-3 0  9993,2 54083  53.2188  15.1936 0001426 105.7096 254.4054 15.08836001 52918,6917.893,95.438,540.744,538.771,0.0
54083.0,STARLINK-5178,PAYLOAD,2023-09-30 16:44:55,15.08857838,0.0001453,53.2174,14.002,94.5235,265.5923,0.00020539,2.984e-05,0.0,0 STARLINK-5178,1 54083U 22136AJ  23273.69785942  .00002984  00000-0  20539-3 0  9996,2 54083  53.2174  14.0020 0001453  94.5235 265.5923 15.08857838 52958,6917.826,95.436,540.696,538.686,0.0
54083.0,STARLINK-5178,PAYLOAD,2023-10-01 13:24:56,15.0885024,0.0001508,53.2188,10.1396,83.8011,276.3153,0.00020598,2.993e-05,0.0,0 STARLINK-5178,1 54083U 22136AJ  23274.55898348  .00002993  00000-0  20598-3 0  9992,2 54083  53.2188  10.1396 0001508  83.8011 276.3153 15.08850240 53080,6917.849,95.437,540.757,538.671,0.0
54083.0,STARLINK-5178,PAYLOAD,2023-10-01 22:57:15,15.08840411,0.0001549,53.2182,8.3518,78.5679,281.5487,1.8201e-05,2e-08,0.0,0 STARLINK-5178,1 54083U 22136AJ  23274.95642612  .00000002  00000-0  18201-4 0  9995,2 54083  53.2182   8.3518 0001549  78.5679 281.5487 15.08840411 53149,6917.879,95.438,540.816,538.673,0.0
54083.0,STARLINK-5178,PAYLOAD,2023-10-02 13:15:44,15.08836953,0.0001582,53.2184,5.6798,95.6227,264.4946,-2.3185e-05,-6.57e-06,0.0,0 STARLINK-5178,1 54083U 22136AJ  23275.55259266 -.00000657  00000-0 -23185-4 0  9996,2 54083  53.2184   5.6798 0001582  95.6227 264.4946 15.08836953 53233,6917.89,95.438,540.849,538.66,0.0
54083.0,STARLINK-5178,PAYLOAD,2023-10-03 13:06:31,15.08853472,0.0001559,53.2186,1.2197,95.3328,264.7843,0.00082633,0.00012892,0.0,0 STARLINK-5178,1 54083U 22136AJ  23276.54619353  .00012892  00000-0  82633-3 0  9997,2 54083  53.2186   1.2197 0001559  95.3328 264.7843 15.08853472 52900,6917.839,95.437,540.783,538.626,0.0
54083.0,STARLINK-5178,PAYLOAD,2023-10-04 09:46:31,15.08843257,0.0001699,53.2187,357.3526,98.4587,261.6597,0.0001879,2.704e-05,0.0,0 STARLINK-5178,1 54083U 22136AJ  23277.40731318  .00002704  00000-0  18790-3 0  9993,2 54083  53.2187 357.3526 0001699  98.4587 261.6597 15.08843257 53518,6917.87,95.437,540.911,538.56,0.0
54083.0,STARLINK-5178,PAYLOAD,2023-10-04 12:57:17,15.08848292,0.0001683,53.2184,356.7568,80.2637,279.8545,0.00025439,3.764e-05,0.0,0 STARLINK-5178,1 54083U 22136AJ  23277.53979139  .00003764  00000-0  25439-3 0  9997,2 54083  53.2184 356.7568 0001683  80.2637 279.8545 15.08848292 53059,6917.855,95.437,540.884,538.556,0.0
54083.0,STARLINK-5178,PAYLOAD,2023-10-05 11:12:41,15.08844175,0.0001322,53.2177,352.5951,85.3369,274.7774,9.0631e-05,1.155e-05,0.0,0 STARLINK-5178,1 54083U 22136AJ  23278.46715258  .00001155  00000-0  90631-4 0  9999,2 54083  53.2177 352.5951 0001322  85.3369 274.7774 15.08844175 53671,6917.868,95.437,540.647,538.818,0.0
